start=new Date('2022-08-08T00:00:00.000Z').valueOf();
sats=[{"MEAN_MOTION":"15.08834033","TIME_SYSTEM":"UTC","TLE_LINE2":"2 52284  53.2136 218.9159 0002149  48.6890 161.6786 15.08834033  1303","REF_FRAME":"TEME","BSTAR":"0.00231800000000","SITE":"AFETR","EPHEMERIS_TYPE":"0","RA_OF_ASC_NODE":"218.9159","ELEMENT_SET_NO":"999","CENTER_NAME":"EARTH","PERIOD":"95.438","LAUNCH_DATE":"2022-04-21","OBJECT_TYPE":"PAYLOAD","NORAD_CAT_ID":"52284","APOAPSIS":"541.250","COUNTRY_CODE":"US","OBJECT_NAME":"STARLINK-3561","INCLINATION":"53.2136","ARG_OF_PERICENTER":"48.6890","REV_AT_EPOCH":"130","DECAY_DATE":null,"TLE_LINE1":"1 52284U 22041Z   22219.91667824  .00036790  00000-0  23180-2 0  9990","FILE":"3531552","PERIAPSIS":"538.277","MEAN_ELEMENT_THEORY":"SGP4","GP_ID":"209796464","MEAN_ANOMALY":"161.6786","ECCENTRICITY":"0.00021490","EPOCH":"2022-08-07T22:00:00.999936","SEMIMAJOR_AXIS":"6917.899","MEAN_MOTION_DOT":"0.00036790","RCS_SIZE":"LARGE","CLASSIFICATION_TYPE":"U","OBJECT_ID":"2022-041Z","MEAN_MOTION_DDOT":"0.0000000000000"},{"CLASSIFICATION_TYPE":"U","OBJECT_ID":"2022-041AA","MEAN_MOTION_DDOT":"0.0000000000000","MEAN_MOTION_DOT":"0.00041846","SEMIMAJOR_AXIS":"6917.954","RCS_SIZE":"LARGE","ECCENTRICITY":"0.00021300","GP_ID":"209769404","MEAN_ANOMALY":"67.8293","EPOCH":"2022-08-07T22:00:00.999936","PERIAPSIS":"538.345","MEAN_ELEMENT_THEORY":"SGP4","TLE_LINE1":"1 52285U 22041AA  22219.91667824  .00041846  00000-0  26335-2 0  9994","FILE":"3531450","REV_AT_EPOCH":"1786","DECAY_DATE":null,"INCLINATION":"53.2182","COUNTRY_CODE":"US","OBJECT_NAME":"STARLINK-3775","ARG_OF_PERICENTER":"47.5080","OBJECT_TYPE":"PAYLOAD","APOAPSIS":"541.292","NORAD_CAT_ID":"52285","PERIOD":"95.439","CENTER_NAME":"EARTH","LAUNCH_DATE":"2022-04-21","ELEMENT_SET_NO":"999","BSTAR":"0.00263350000000","SITE":"AFETR","RA_OF_ASC_NODE":"228.9188","EPHEMERIS_TYPE":"0","TLE_LINE2":"2 52285  53.2182 228.9188 0002130  47.5080  67.8293 15.08816000 17869","REF_FRAME":"TEME","MEAN_MOTION":"15.08816000","TIME_SYSTEM":"UTC"},{"GP_ID":"209769782","ECCENTRICITY":"0.00017170","MEAN_ANOMALY":"183.3841","EPOCH":"2022-08-07T22:00:00.999936","PERIAPSIS":"538.609","MEAN_ELEMENT_THEORY":"SGP4","CLASSIFICATION_TYPE":"U","OBJECT_ID":"2022-041AB","MEAN_MOTION_DDOT":"0.0000000000000","MEAN_MOTION_DOT":"0.00038797","SEMIMAJOR_AXIS":"6917.932","RCS_SIZE":"LARGE","REV_AT_EPOCH":"1799","DECAY_DATE":null,"OBJECT_NAME":"STARLINK-3802","COUNTRY_CODE":"US","INCLINATION":"53.2131","ARG_OF_PERICENTER":"66.9712","TLE_LINE1":"1 52286U 22041AB  22219.91667824  .00038797  00000-0  24435-2 0  9995","FILE":"3531450","ELEMENT_SET_NO":"999","SITE":"AFETR","BSTAR":"0.00244350000000","EPHEMERIS_TYPE":"0","RA_OF_ASC_NODE":"218.9136","OBJECT_TYPE":"PAYLOAD","APOAPSIS":"540.985","NORAD_CAT_ID":"52286","CENTER_NAME":"EARTH","PERIOD":"95.439","LAUNCH_DATE":"2022-04-21","MEAN_MOTION":"15.08823216","TIME_SYSTEM":"UTC","TLE_LINE2":"2 52286  53.2131 218.9136 0001717  66.9712 183.3841 15.08823216 17997","REF_FRAME":"TEME"},{"MEAN_MOTION":"15.08812410","TIME_SYSTEM":"UTC","REF_FRAME":"TEME","TLE_LINE2":"2 52287  53.2171 228.9194 0002247  49.0893 106.2735 15.08812410  1306","ELEMENT_SET_NO":"999","EPHEMERIS_TYPE":"0","RA_OF_ASC_NODE":"228.9194","SITE":"AFETR","BSTAR":"0.00244450000000","APOAPSIS":"541.384","NORAD_CAT_ID":"52287","OBJECT_TYPE":"PAYLOAD","LAUNCH_DATE":"2022-04-21","CENTER_NAME":"EARTH","PERIOD":"95.439","REV_AT_EPOCH":"130","DECAY_DATE":null,"COUNTRY_CODE":"US","OBJECT_NAME":"STARLINK-3822","INCLINATION":"53.2171","ARG_OF_PERICENTER":"49.0893","TLE_LINE1":"1 52287U 22041AC  22219.91667824  .00038802  00000-0  24445-2 0  9994","FILE":"3531552","EPOCH":"2022-08-07T22:00:00.999936","GP_ID":"209796978","ECCENTRICITY":"0.00022470","MEAN_ANOMALY":"106.2735","PERIAPSIS":"538.275","MEAN_ELEMENT_THEORY":"SGP4","OBJECT_ID":"2022-041AC","MEAN_MOTION_DDOT":"0.0000000000000","CLASSIFICATION_TYPE":"U","RCS_SIZE":"LARGE","MEAN_MOTION_DOT":"0.00038802","SEMIMAJOR_AXIS":"6917.965"},{"CENTER_NAME":"EARTH","PERIOD":"95.438","LAUNCH_DATE":"2022-04-21","OBJECT_TYPE":"PAYLOAD","NORAD_CAT_ID":"52288","APOAPSIS":"541.097","SITE":"AFETR","BSTAR":"0.00253490000000","RA_OF_ASC_NODE":"218.9141","EPHEMERIS_TYPE":"0","ELEMENT_SET_NO":"999","TLE_LINE2":"2 52288  53.2142 218.9141 0001907  61.3047 209.1186 15.08829508  1305","REF_FRAME":"TEME","TIME_SYSTEM":"UTC","MEAN_MOTION":"15.08829508","MEAN_MOTION_DOT":"0.00040275","SEMIMAJOR_AXIS":"6917.912","RCS_SIZE":"LARGE","CLASSIFICATION_TYPE":"U","MEAN_MOTION_DDOT":"0.0000000000000","OBJECT_ID":"2022-041AD","MEAN_ELEMENT_THEORY":"SGP4","PERIAPSIS":"538.458","GP_ID":"209796068","ECCENTRICITY":"0.00019070","MEAN_ANOMALY":"209.1186","EPOCH":"2022-08-07T22:00:00.999936","FILE":"3531552","TLE_LINE1":"1 52288U 22041AD  22219.91667824  .00040275  00000-0  25349-2 0  9996","ARG_OF_PERICENTER":"61.3047","COUNTRY_CODE":"US","OBJECT_NAME":"STARLINK-3776","INCLINATION":"53.2142","DECAY_DATE":null,"REV_AT_EPOCH":"130"},{"ELEMENT_SET_NO":"999","BSTAR":"0.00230860000000","SITE":"AFETR","EPHEMERIS_TYPE":"0","RA_OF_ASC_NODE":"218.9174","OBJECT_TYPE":"PAYLOAD","NORAD_CAT_ID":"52289","APOAPSIS":"541.482","PERIOD":"95.438","CENTER_NAME":"EARTH","LAUNCH_DATE":"2022-04-21","MEAN_MOTION":"15.08836866","TIME_SYSTEM":"UTC","TLE_LINE2":"2 52289  53.2142 218.9174 0002496  52.6711 137.7435 15.08836866  1305","REF_FRAME":"TEME","GP_ID":"209796480","MEAN_ANOMALY":"137.7435","ECCENTRICITY":"0.00024960","EPOCH":"2022-08-07T22:00:00.999936","PERIAPSIS":"538.028","MEAN_ELEMENT_THEORY":"SGP4","CLASSIFICATION_TYPE":"U","OBJECT_ID":"2022-041AE","MEAN_MOTION_DDOT":"0.0000000000000","MEAN_MOTION_DOT":"0.00036643","SEMIMAJOR_AXIS":"6917.890","RCS_SIZE":"LARGE","REV_AT_EPOCH":"130","DECAY_DATE":null,"COUNTRY_CODE":"US","OBJECT_NAME":"STARLINK-3751","INCLINATION":"53.2142","ARG_OF_PERICENTER":"52.6711","TLE_LINE1":"1 52289U 22041AE  22219.91667824  .00036643  00000-0  23086-2 0  9997","FILE":"3531552"},{"ELEMENT_SET_NO":"999","SITE":"AFETR","BSTAR":"0.00273370000000","EPHEMERIS_TYPE":"0","RA_OF_ASC_NODE":"218.9133","OBJECT_TYPE":"PAYLOAD","APOAPSIS":"540.866","NORAD_CAT_ID":"52290","PERIOD":"95.439","CENTER_NAME":"EARTH","LAUNCH_DATE":"2022-04-21","TIME_SYSTEM":"UTC","MEAN_MOTION":"15.08821999","TLE_LINE2":"2 52290  53.2142 218.9133 0001540  60.6456 264.5547 15.08821999  1300","REF_FRAME":"TEME","ECCENTRICITY":"0.00015400","GP_ID":"209796215","MEAN_ANOMALY":"264.5547","EPOCH":"2022-08-07T22:00:00.999936","MEAN_ELEMENT_THEORY":"SGP4","PERIAPSIS":"538.735","CLASSIFICATION_TYPE":"U","MEAN_MOTION_DDOT":"0.0000000000000","OBJECT_ID":"2022-041AF","SEMIMAJOR_AXIS":"6917.935","MEAN_MOTION_DOT":"0.00043466","RCS_SIZE":"LARGE","DECAY_DATE":null,"REV_AT_EPOCH":"130","ARG_OF_PERICENTER":"60.6456","OBJECT_NAME":"STARLINK-3772","COUNTRY_CODE":"US","INCLINATION":"53.2142","FILE":"3531552","TLE_LINE1":"1 52290U 22041AF  22219.91667824  .00043466  00000-0  27337-2 0  9993"},{"LAUNCH_DATE":"2022-04-21","CENTER_NAME":"EARTH","PERIOD":"95.439","APOAPSIS":"541.288","NORAD_CAT_ID":"52291","OBJECT_TYPE":"PAYLOAD","RA_OF_ASC_NODE":"218.9156","EPHEMERIS_TYPE":"0","BSTAR":"0.00237750000000","SITE":"AFETR","ELEMENT_SET_NO":"999","REF_FRAME":"TEME","TLE_LINE2":"2 52291  53.2137 218.9156 0002139  50.8101 179.5652 15.08819377  1302","MEAN_MOTION":"15.08819377","TIME_SYSTEM":"UTC","RCS_SIZE":"LARGE","MEAN_MOTION_DOT":"0.00037732","SEMIMAJOR_AXIS":"6917.943","OBJECT_ID":"2022-041AG","MEAN_MOTION_DDOT":"0.0000000000000","CLASSIFICATION_TYPE":"U","PERIAPSIS":"538.329","MEAN_ELEMENT_THEORY":"SGP4","EPOCH":"2022-08-07T22:00:00.999936","GP_ID":"209796852","MEAN_ANOMALY":"179.5652","ECCENTRICITY":"0.00021390","TLE_LINE1":"1 52291U 22041AG  22219.91667824  .00037732  00000-0  23775-2 0  9995","FILE":"3531552","COUNTRY_CODE":"US","OBJECT_NAME":"STARLINK-3773","INCLINATION":"53.2137","ARG_OF_PERICENTER":"50.8101","REV_AT_EPOCH":"130","DECAY_DATE":null},{"ARG_OF_PERICENTER":"73.7358","COUNTRY_CODE":"US","INCLINATION":"53.2145","OBJECT_NAME":"STARLINK-3753","DECAY_DATE":null,"REV_AT_EPOCH":"130","FILE":"3531552","TLE_LINE1":"1 52292U 22041AH  22219.91667824  .00044222  00000-0  27805-2 0  9996","MEAN_ELEMENT_THEORY":"SGP4","PERIAPSIS":"538.572","ECCENTRICITY":"0.00017700","GP_ID":"209796465","MEAN_ANOMALY":"276.6731","EPOCH":"2022-08-07T22:00:00.999936","MEAN_MOTION_DOT":"0.00044222","SEMIMAJOR_AXIS":"6917.931","RCS_SIZE":"MEDIUM","CLASSIFICATION_TYPE":"U","MEAN_MOTION_DDOT":"0.0000000000000","OBJECT_ID":"2022-041AH","TIME_SYSTEM":"UTC","MEAN_MOTION":"15.08823303","TLE_LINE2":"2 52292  53.2145 218.9051 0001770  73.7358 276.6731 15.08823303  1305","REF_FRAME":"TEME","SITE":"AFETR","BSTAR":"0.00278050000000","EPHEMERIS_TYPE":"0","RA_OF_ASC_NODE":"218.9051","ELEMENT_SET_NO":"999","PERIOD":"95.439","CENTER_NAME":"EARTH","LAUNCH_DATE":"2022-04-21","OBJECT_TYPE":"PAYLOAD","NORAD_CAT_ID":"52292","APOAPSIS":"541.021"},{"PERIAPSIS":"538.673","MEAN_ELEMENT_THEORY":"SGP4","GP_ID":"209796084","MEAN_ANOMALY":"226.4475","ECCENTRICITY":"0.00016840","EPOCH":"2022-08-07T22:00:00.999936","SEMIMAJOR_AXIS":"6917.973","MEAN_MOTION_DOT":"0.00041711","RCS_SIZE":"LARGE","CLASSIFICATION_TYPE":"U","OBJECT_ID":"2022-041AJ","MEAN_MOTION_DDOT":"0.0000000000000","OBJECT_NAME":"STARLINK-3771","COUNTRY_CODE":"US","INCLINATION":"53.2142","ARG_OF_PERICENTER":"63.9877","REV_AT_EPOCH":"130","DECAY_DATE":null,"TLE_LINE1":"1 52293U 22041AJ  22219.91667824  .00041711  00000-0  26256-2 0  9996","FILE":"3531552","BSTAR":"0.00262560000000","SITE":"AFETR","EPHEMERIS_TYPE":"0","RA_OF_ASC_NODE":"218.9143","ELEMENT_SET_NO":"999","CENTER_NAME":"EARTH","PERIOD":"95.439","LAUNCH_DATE":"2022-04-21","OBJECT_TYPE":"PAYLOAD","NORAD_CAT_ID":"52293","APOAPSIS":"541.003","MEAN_MOTION":"15.08809594","TIME_SYSTEM":"UTC","TLE_LINE2":"2 52293  53.2142 218.9143 0001684  63.9877 226.4475 15.08809594  1300","REF_FRAME":"TEME"}];
